QIANFAN-204             
1 69803U 26153D   26203.22700082  .00000165  00000+0  70802-4 0  9999
2 69803  88.9930 358.2453 0008495 157.2327 202.9242 14.20115572  2548
QIANFAN-205             
1 69804U 26153E   26203.22481981 -.00000043  00000+0 -27611-4 0  9991
2 69804  88.9926 358.2449 0008271 155.7816 204.3764 14.18482570  2544
QIANFAN-206             
1 69805U 26153F   26203.21116445  .00000084  00000+0  33353-4 0  9994
2 69805  88.9930 358.2427 0008547 156.2456 203.9129 14.18782827  2546
QIANFAN-207             
1 69806U 26153G   26203.27780957  .00000234  00000+0  10370-3 0  9996
2 69806  88.9929 358.2341 0008155 153.1752 206.9862 14.19831825  2552
QIANFAN-208             
1 69807U 26153H   26203.26902298  .00000091  00000+0  34229-4 0  9991
2 69807  88.9929 358.2327 0009205 158.8721 201.2853 14.22846689  2558
QIANFAN-209             
1 69808U 26153J   26203.21269584  .00000184  00000+0  80286-4 0  9998
2 69808  88.9930 358.2431 0008423 154.4205 205.7403 14.19691435  2549
QIANFAN-210             
1 69809U 26153K   26203.27808564  .00000151  00000+0  64366-4 0  9997
2 69809  88.9931 358.2343 0008591 156.3142 203.8445 14.19937324  2556
QIANFAN-211             
1 69810U 26153L   26203.27719413  .00000074  00000+0  27647-4 0  9998
2 69810  88.9929 358.2340 0007989 155.0744 205.0833 14.20224190  2553
QIANFAN-212             
1 69811U 26153M   26203.27079860  .00000089  00000+0  34259-4 0  9997
2 69811  88.9930 358.2329 0009131 159.9473 200.2078 14.20819984  2555
QIANFAN-213             
1 69812U 26153N   26203.19885792  .00000088  00000+0  33762-4 0  9995
2 69812  88.9930 358.2409 0008044 155.5350 204.6224 14.21099112  2547
QIANFAN-214             
1 69813U 26153P   26203.25987927  .00000098  00000+0  35250-4 0  9991
2 69813  88.9929 358.2314 0008713 160.5490 199.6038 14.25492251  2557
QIANFAN-215             
1 69814U 26153Q   26203.25728580  .00000100  00000+0  35315-4 0  9996
2 69814  88.9928 358.2306 0008721 162.4096 197.7401 14.26680365  2559
QIANFAN-216             
1 69815U 26153R   26203.25727318  .00000229  00000+0  88528-4 0  9991
2 69815  88.9929 358.2310 0008964 162.7156 197.4345 14.26677465  2556
QIANFAN-217             
1 69816U 26153S   26203.25656833  .00000106  00000+0  37832-4 0  9991
2 69816  88.9928 358.2307 0008473 160.2120 199.9405 14.26768710  2559
QIANFAN-218             
1 69817U 26153T   26203.25604176  .00000197  00000+0  75203-4 0  9999
2 69817  88.9931 358.2312 0008238 157.7006 202.4548 14.26812548  2550
CZ-6A R/B               
1 69818U 26153U   26203.27404180  .00000274  00000+0  58295-4 0  9993
2 69818  89.0171 358.1425 0086788  63.3777 297.6289 14.53451284  2606
STARLINK-37520          
1 69819U 26154A   26203.27546781  .00052580  00000+0  26784-3 0  9993
2 69819  53.1580 257.4683 0001017  54.8863 305.2255 15.80911509  3931
STARLINK-37553          
1 69820U 26154B   26203.27472192  .00119711  00000+0  60038-3 0  9999
2 69820  53.1578 257.4633 0001336  80.0486 280.0687 15.80919825  3939
STARLINK-37561          
1 69821U 26154C   26202.95787220  .00387866  00000+0  18679-2 0  9996
2 69821  53.1579 259.0422 0000710  76.0593 284.0509 15.81032336  3889
STARLINK-37521          
1 69822U 26154D   26203.27322162  .00117139  00000+0  58779-3 0  9993
2 69822  53.1579 257.4531 0001259  71.7889 288.3271 15.80917681  3935
STARLINK-37628          
1 69823U 26154E   26202.95637341  .00192707  00000+0  95441-3 0  9997
2 69823  53.1580 259.0319 0001036  71.0803 289.0332 15.80960217  3885
STARLINK-37695          
1 69824U 26154F   26202.63333542  .00112031  00000+0  56284-3 0  9993
2 69824  53.1581 260.5702 0001525  52.0517 308.0643 15.80909740  3830
STARLINK-37690          
1 69825U 26154G   26202.63877735  .00252172  00000+0  12383-2 0  9993
2 69825  53.1581 260.6064 0000858  60.1940 299.9168 15.80975907  3839
STARLINK-37710          
1 69826U 26154H   26203.20700699  .00098434  00000+0  49618-3 0  9993
2 69826  53.1584 257.7512 0001534  49.9183 310.1974 15.80890356  3929
STARLINK-38031          
1 69827U 26154J   26203.26947451  .00508507  00000+0  24006-2 0  9999
2 69827  53.1582 257.4276 0000609 354.1947   5.9068 15.81146610  3935
STARLINK-38001          
1 69828U 26154K   26203.26872564  .00525675  00000+0  24762-2 0  9996
2 69828  53.1585 257.4225 0001096   3.8894 356.2137 15.81150626  3934
STARLINK-37622          
1 69829U 26154L   26203.26797599  .00563759  00000+0  26413-2 0  9991
2 69829  53.1582 257.4175 0000697 359.4147   0.6875 15.81167325  3936
STARLINK-37621          
1 69830U 26154M   26203.26722160  .00303186  00000+0  14793-2 0  9999
2 69830  53.1583 257.4117 0001071  76.0130 284.1011 15.80976415  3934
STARLINK-37918          
1 69831U 26154N   26203.26647424  .00562307  00000+0  26346-2 0  9998
2 69831  53.1581 257.4072 0000548 338.6076  21.4924 15.81169578  3937
STARLINK-37887          
1 69832U 26154P   26203.26572152  .00170130  00000+0  84652-3 0  9998
2 69832  53.1582 257.4014 0001009  95.5382 264.5756 15.80926813  3932
