OBJECT_NAME,OBJECT_ID,EPOCH,MEAN_MOTION,ECCENTRICITY,INCLINATION,RA_OF_ASC_NODE,ARG_OF_PERICENTER,MEAN_ANOMALY,EPHEMERIS_TYPE,CLASSIFICATION_TYPE,NORAD_CAT_ID,ELEMENT_SET_NO,REV_AT_EPOCH,BSTAR,MEAN_MOTION_DOT,MEAN_MOTION_DDOT
QIANFAN-204,2026-153D,2026-07-22T05:26:52.870848,14.20115572,.00084951,88.9930,358.2453,157.2327,202.9242,0,U,69803,999,254,.70801664E-4,.165E-5,0
QIANFAN-205,2026-153E,2026-07-22T05:23:44.431584,14.18482570,.00082715,88.9926,358.2449,155.7816,204.3764,0,U,69804,999,254,-.27610873E-4,-.43E-6,0
QIANFAN-206,2026-153F,2026-07-22T05:04:04.608480,14.18782827,.00085476,88.9930,358.2427,156.2456,203.9129,0,U,69805,999,254,.33353448E-4,.84E-6,0
QIANFAN-207,2026-153G,2026-07-22T06:40:02.746848,14.19831825,.00081555,88.9929,358.2341,153.1752,206.9862,0,U,69806,999,255,.10370199E-3,.234E-5,0
QIANFAN-208,2026-153H,2026-07-22T06:27:23.585472,14.22846689,.00092052,88.9929,358.2327,158.8721,201.2853,0,U,69807,999,255,.34228656E-4,.91E-6,0
QIANFAN-209,2026-153J,2026-07-22T05:06:16.920576,14.19691435,.00084235,88.9930,358.2431,154.4205,205.7403,0,U,69808,999,254,.80286184E-4,.184E-5,0
QIANFAN-210,2026-153K,2026-07-22T06:40:26.599296,14.19937324,.0008591,88.9931,358.2343,156.3142,203.8445,0,U,69809,999,255,.64365841E-4,.151E-5,0
QIANFAN-211,2026-153L,2026-07-22T06:39:09.572832,14.20224190,.00079897,88.9929,358.2340,155.0744,205.0833,0,U,69810,999,255,.2764652E-4,.74E-6,0
QIANFAN-212,2026-153M,2026-07-22T06:29:56.999040,14.20819984,.00091316,88.9930,358.2329,159.9473,200.2078,0,U,69811,999,255,.3425947E-4,.89E-6,0
QIANFAN-213,2026-153N,2026-07-22T04:46:21.324288,14.21099112,.00080449,88.9930,358.2409,155.5350,204.6224,0,U,69812,999,254,.33761554E-4,.88E-6,0
QIANFAN-214,2026-153P,2026-07-22T06:14:13.568928,14.25492251,.0008713,88.9929,358.2314,160.5490,199.6038,0,U,69813,999,255,.35249607E-4,.98E-6,0
QIANFAN-215,2026-153Q,2026-07-22T06:10:29.493120,14.26680365,.00087217,88.9928,358.2306,162.4096,197.7401,0,U,69814,999,255,.35315315E-4,.1E-5,0
QIANFAN-216,2026-153R,2026-07-22T06:10:28.402752,14.26677465,.00089642,88.9929,358.2310,162.7156,197.4345,0,U,69815,999,255,.88528438E-4,.229E-5,0
QIANFAN-217,2026-153S,2026-07-22T06:09:27.503712,14.26768710,.00084733,88.9928,358.2307,160.2120,199.9405,0,U,69816,999,255,.37831718E-4,.106E-5,0
QIANFAN-218,2026-153T,2026-07-22T06:08:42.008064,14.26812548,.00082383,88.9931,358.2312,157.7006,202.4548,0,U,69817,999,255,.75203392E-4,.197E-5,0
CZ-6A R/B,2026-153U,2026-07-22T06:34:37.211520,14.53451284,.00867883,89.0171,358.1425,63.3777,297.6289,0,U,69818,999,260,.58294877E-4,.274E-5,0
STARLINK-37520,2026-154A,2026-07-22T06:36:40.418784,15.80911509,.00010171,53.1580,257.4683,54.8863,305.2255,0,U,69819,999,393,.26784007E-3,.5258E-3,0
STARLINK-37553,2026-154B,2026-07-22T06:35:35.973888,15.80919825,.00013364,53.1578,257.4633,80.0486,280.0687,0,U,69820,999,393,.60037763E-3,.119711E-2,0
STARLINK-37561,2026-154C,2026-07-21T22:59:20.158080,15.81032336,.00007109,53.1579,259.0422,76.0593,284.0509,0,U,69821,999,388,.18678962E-2,.387866E-2,0
STARLINK-37521,2026-154D,2026-07-22T06:33:26.347968,15.80917681,.00012597,53.1579,257.4531,71.7889,288.3271,0,U,69822,999,393,.58778906E-3,.117139E-2,0
STARLINK-37628,2026-154E,2026-07-21T22:57:10.662624,15.80960217,.00010363,53.1580,259.0319,71.0803,289.0332,0,U,69823,999,388,.95441282E-3,.192707E-2,0
STARLINK-37695,2026-154F,2026-07-21T15:12:00.180288,15.80909740,.00015253,53.1581,260.5702,52.0517,308.0643,0,U,69824,999,383,.56284252E-3,.112031E-2,0
STARLINK-37690,2026-154G,2026-07-21T15:19:50.363040,15.80975907,.00008587,53.1581,260.6064,60.1940,299.9168,0,U,69825,999,383,.12383205E-2,.252172E-2,0
STARLINK-37710,2026-154H,2026-07-22T04:58:05.403936,15.80890356,.00015341,53.1584,257.7512,49.9183,310.1974,0,U,69826,999,392,.49618062E-3,.98434E-3,0
STARLINK-38031,2026-154J,2026-07-22T06:28:02.597664,15.81146610,.00006093,53.1582,257.4276,354.1947,5.9068,0,U,69827,999,393,.24006109E-2,.508507E-2,0
STARLINK-38001,2026-154K,2026-07-22T06:26:57.895296,15.81150626,.00010969,53.1585,257.4225,3.8894,356.2137,0,U,69828,999,393,.24762395E-2,.525675E-2,0
STARLINK-37622,2026-154L,2026-07-22T06:25:53.125536,15.81167325,.00006974,53.1582,257.4175,359.4147,0.6875,0,U,69829,999,393,.26413115E-2,.563759E-2,0
STARLINK-37621,2026-154M,2026-07-22T06:24:47.946240,15.80976415,.0001071,53.1583,257.4117,76.0130,284.1011,0,U,69830,999,393,.1479254E-2,.303186E-2,0
STARLINK-37918,2026-154N,2026-07-22T06:23:43.374336,15.81169578,.00005486,53.1581,257.4072,338.6076,21.4924,0,U,69831,999,393,.26346275E-2,.562307E-2,0
STARLINK-37887,2026-154P,2026-07-22T06:22:38.339328,15.80926813,.00010092,53.1582,257.4014,95.5382,264.5756,0,U,69832,999,393,.84652309E-3,.17013E-2,0
